{
  "type": "FeatureCollection",
  "features": [
    {
      "type": "Feature",
      "properties": {
        "norad_id": 36234,
        "name": "FENGYUN 1C DEB",
        "group": "fengyun-1c-debris",
        "lat": 80.63998218273792,
        "lon": -17.934893766604187,
        "alt_km": 950.3454709724065,
        "timestamp": "2025-12-12T07:43:20.802341+00:00",
        "meta_object_name": "FENGYUN 1C DEB",
        "meta_object_id": "1999-025DVK",
        "meta_epoch": "2025-12-08T10:31:28.850304",
        "meta_mean_motion": 13.45655828,
        "meta_eccentricity": 0.03174488,
        "meta_inclination": 99.0031,
        "meta_ra_of_asc_node": 52.6849,
        "meta_arg_of_pericenter": 39.1104,
        "meta_mean_anomaly": 323.2521,
        "meta_ephemeris_type": 0,
        "meta_classification_type": "U",
        "meta_norad_cat_id": 36234,
        "meta_element_set_no": 999,
        "meta_rev_at_epoch": 87889,
        "meta_bstar": 0.00050484626,
        "meta_mean_motion_dot": 3.7e-06,
        "meta_mean_motion_ddot": 0,
        "tle_line1": "1 36234U 99025DVK 25342.43852836  .00000370  00000+0  50485-3 0  9992",
        "tle_line2": "2 36234  99.0031  52.6849 0317448  39.1104 323.2521 13.45655828878896"
      },
      "geometry": {
        "type": "Point",
        "coordinates": [
          -17.934893766604187,
          80.63998218273792
        ]
      }
    },
    {
      "type": "Feature",
      "properties": {
        "norad_id": 36236,
        "name": "FENGYUN 1C DEB",
        "group": "fengyun-1c-debris",
        "lat": 23.34687603076035,
        "lon": -149.39866248339027,
        "alt_km": 1057.085063942679,
        "timestamp": "2025-12-12T07:43:20.802352+00:00",
        "meta_object_name": "FENGYUN 1C DEB",
        "meta_object_id": "1999-025DVM",
        "meta_epoch": "2025-12-10T20:13:13.163808",
        "meta_mean_motion": 13.81954009,
        "meta_eccentricity": 0.0149575,
        "meta_inclination": 98.85,
        "meta_ra_of_asc_node": 25.3566,
        "meta_arg_of_pericenter": 3.3066,
        "meta_mean_anomaly": 356.9043,
        "meta_ephemeris_type": 0,
        "meta_classification_type": "U",
        "meta_norad_cat_id": 36236,
        "meta_element_set_no": 999,
        "meta_rev_at_epoch": 59721,
        "meta_bstar": 0.00040381,
        "meta_mean_motion_dot": 4.31e-06,
        "meta_mean_motion_ddot": 0,
        "tle_line1": "1 36236U 99025DVM 25344.84251347  .00000431  00000+0  40381-3 0  9993",
        "tle_line2": "2 36236  98.8500  25.3566 0149575   3.3066 356.9043 13.81954009597212"
      },
      "geometry": {
        "type": "Point",
        "coordinates": [
          -149.39866248339027,
          23.34687603076035
        ]
      }
    },
    {
      "type": "Feature",
      "properties": {
        "norad_id": 36238,
        "name": "FENGYUN 1C DEB",
        "group": "fengyun-1c-debris",
        "lat": -67.85365156236011,
        "lon": 116.84845742243841,
        "alt_km": 846.3340535645148,
        "timestamp": "2025-12-12T07:43:20.802362+00:00",
        "meta_object_name": "FENGYUN 1C DEB",
        "meta_object_id": "1999-025DVP",
        "meta_epoch": "2025-12-10T15:26:18.443328",
        "meta_mean_motion": 14.12389304,
        "meta_eccentricity": 0.00201233,
        "meta_inclination": 98.6473,
        "meta_ra_of_asc_node": 317.1851,
        "meta_arg_of_pericenter": 288.0763,
        "meta_mean_anomaly": 71.8217,
        "meta_ephemeris_type": 0,
        "meta_classification_type": "U",
        "meta_norad_cat_id": 36238,
        "meta_element_set_no": 999,
        "meta_rev_at_epoch": 86988,
        "meta_bstar": 0.00013750843,
        "meta_mean_motion_dot": 2.11e-06,
        "meta_mean_motion_ddot": 0,
        "tle_line1": "1 36238U 99025DVP 25344.64326902  .00000211  00000+0  13751-3 0  9990",
        "tle_line2": "2 36238  98.6473 317.1851 0020123 288.0763  71.8217 14.12389304869889"
      },
      "geometry": {
        "type": "Point",
        "coordinates": [
          116.84845742243841,
          -67.85365156236011
        ]
      }
    },
    {
      "type": "Feature",
      "properties": {
        "norad_id": 36244,
        "name": "FENGYUN 1C DEB",
        "group": "fengyun-1c-debris",
        "lat": 46.36431636163198,
        "lon": -73.57971866649856,
        "alt_km": 835.5377530875603,
        "timestamp": "2025-12-12T07:43:20.802373+00:00",
        "meta_object_name": "FENGYUN 1C DEB",
        "meta_object_id": "1999-025DVV",
        "meta_epoch": "2025-12-10T06:13:35.069088",
        "meta_mean_motion": 14.24939547,
        "meta_eccentricity": 0.0048532,
        "meta_inclination": 98.9256,
        "meta_ra_of_asc_node": 94.837,
        "meta_arg_of_pericenter": 291.7141,
        "meta_mean_anomaly": 67.8875,
        "meta_ephemeris_type": 0,
        "meta_classification_type": "U",
        "meta_norad_cat_id": 36244,
        "meta_element_set_no": 999,
        "meta_rev_at_epoch": 91943,
        "meta_bstar": 0.0025575,
        "meta_mean_motion_dot": 6.011e-05,
        "meta_mean_motion_ddot": 0,
        "tle_line1": "1 36244U 99025DVV 25344.25943367  .00006011  00000+0  25575-2 0  9994",
        "tle_line2": "2 36244  98.9256  94.8370 0048532 291.7141  67.8875 14.24939547919433"
      },
      "geometry": {
        "type": "Point",
        "coordinates": [
          -73.57971866649856,
          46.36431636163198
        ]
      }
    },
    {
      "type": "Feature",
      "properties": {
        "norad_id": 36247,
        "name": "FENGYUN 1C DEB",
        "group": "fengyun-1c-debris",
        "lat": 68.73973750504646,
        "lon": -22.531116661243903,
        "alt_km": 662.8453791394031,
        "timestamp": "2025-12-12T07:43:20.802383+00:00",
        "meta_object_name": "FENGYUN 1C DEB",
        "meta_object_id": "1999-025DVY",
        "meta_epoch": "2025-12-01T11:45:50.986944",
        "meta_mean_motion": 14.33529137,
        "meta_eccentricity": 0.01878056,
        "meta_inclination": 98.2683,
        "meta_ra_of_asc_node": 349.0587,
        "meta_arg_of_pericenter": 67.2123,
        "meta_mean_anomaly": 294.8783,
        "meta_ephemeris_type": 0,
        "meta_classification_type": "U",
        "meta_norad_cat_id": 36247,
        "meta_element_set_no": 999,
        "meta_rev_at_epoch": 70101,
        "meta_bstar": 0.00050385684,
        "meta_mean_motion_dot": 1.653e-05,
        "meta_mean_motion_ddot": 0,
        "tle_line1": "1 36247U 99025DVY 25335.49017346  .00001653  00000+0  50386-3 0  9998",
        "tle_line2": "2 36247  98.2683 349.0587 0187805  67.2123 294.8783 14.33529137701014"
      },
      "geometry": {
        "type": "Point",
        "coordinates": [
          -22.531116661243903,
          68.73973750504646
        ]
      }
    },
    {
      "type": "Feature",
      "properties": {
        "norad_id": 36254,
        "name": "FENGYUN 1C DEB",
        "group": "fengyun-1c-debris",
        "lat": -17.861298921931716,
        "lon": -56.570030684370636,
        "alt_km": 503.82845165801155,
        "timestamp": "2025-12-12T07:43:20.802394+00:00",
        "meta_object_name": "FENGYUN 1C DEB",
        "meta_object_id": "1999-025DWF",
        "meta_epoch": "2025-12-05T14:18:33.750144",
        "meta_mean_motion": 15.16014702,
        "meta_eccentricity": 0.00460473,
        "meta_inclination": 99.5277,
        "meta_ra_of_asc_node": 291.891,
        "meta_arg_of_pericenter": 66.6494,
        "meta_mean_anomaly": 293.9567,
        "meta_ephemeris_type": 0,
        "meta_classification_type": "U",
        "meta_norad_cat_id": 36254,
        "meta_element_set_no": 999,
        "meta_rev_at_epoch": 60668,
        "meta_bstar": 0.0055743559,
        "meta_mean_motion_dot": 0.00111504,
        "meta_mean_motion_ddot": 0,
        "tle_line1": "1 36254U 99025DWF 25339.59622396  .00111504  00000+0  55744-2 0  9997",
        "tle_line2": "2 36254  99.5277 291.8910 0046047  66.6494 293.9567 15.16014702606681"
      },
      "geometry": {
        "type": "Point",
        "coordinates": [
          -56.570030684370636,
          -17.861298921931716
        ]
      }
    },
    {
      "type": "Feature",
      "properties": {
        "norad_id": 36255,
        "name": "FENGYUN 1C DEB",
        "group": "fengyun-1c-debris",
        "lat": -20.119769911032765,
        "lon": 83.44108783731737,
        "alt_km": 737.8095807027676,
        "timestamp": "2025-12-12T07:43:20.802404+00:00",
        "meta_object_name": "FENGYUN 1C DEB",
        "meta_object_id": "1999-025DWG",
        "meta_epoch": "2025-12-11T01:01:55.157664",
        "meta_mean_motion": 14.36557249,
        "meta_eccentricity": 0.00638,
        "meta_inclination": 99.4341,
        "meta_ra_of_asc_node": 265.5336,
        "meta_arg_of_pericenter": 168.3873,
        "meta_mean_anomaly": 261.8738,
        "meta_ephemeris_type": 0,
        "meta_classification_type": "U",
        "meta_norad_cat_id": 36255,
        "meta_element_set_no": 999,
        "meta_rev_at_epoch": 63986,
        "meta_bstar": 0.00107433,
        "meta_mean_motion_dot": 3.181e-05,
        "meta_mean_motion_ddot": 0,
        "tle_line1": "1 36255U 99025DWG 25345.04299951  .00003181  00000+0  10743-2 0  9993",
        "tle_line2": "2 36255  99.4341 265.5336 0063800 168.3873 261.8738 14.36557249639869"
      },
      "geometry": {
        "type": "Point",
        "coordinates": [
          83.44108783731737,
          -20.119769911032765
        ]
      }
    }
  ]
}